STARLINK-5994           
1 56457U 23064K   26068.61000019 -.00000706  00000+0 -51382-4 0  9998
2 56457  70.0007 144.6790 0003007 269.9767  90.1047 14.98326692155237
HAWK-8B                 
1 59445U 24066D   26068.47430810  .00002353  00000+0  21133-3 0  9999
2 59445  45.6192  73.7012 0004280 258.0487 101.9914 14.98769819104860
