[{"OBJECT_NAME":"STARLINK-5994","OBJECT_ID":"2023-064K","EPOCH":"2026-03-09T14:38:24.016416","MEAN_MOTION":14.98326692,"ECCENTRICITY":0.0003007,"INCLINATION":70.0007,"RA_OF_ASC_NODE":144.679,"ARG_OF_PERICENTER":269.9767,"MEAN_ANOMALY":90.1047,"EPHEMERIS_TYPE":0,"CLASSIFICATION_TYPE":"U","NORAD_CAT_ID":56457,"ELEMENT_SET_NO":999,"REV_AT_EPOCH":15523,"BSTAR":-5.1382e-5,"MEAN_MOTION_DOT":-7.06e-6,"MEAN_MOTION_DDOT":0},{"OBJECT_NAME":"HAWK-8B","OBJECT_ID":"2024-066D","EPOCH":"2026-03-09T11:23:00.219840","MEAN_MOTION":14.98769819,"ECCENTRICITY":0.00042801,"INCLINATION":45.6192,"RA_OF_ASC_NODE":73.7012,"ARG_OF_PERICENTER":258.0487,"MEAN_ANOMALY":101.9914,"EPHEMERIS_TYPE":0,"CLASSIFICATION_TYPE":"U","NORAD_CAT_ID":59445,"ELEMENT_SET_NO":999,"REV_AT_EPOCH":10486,"BSTAR":0.00021132759,"MEAN_MOTION_DOT":2.353e-5,"MEAN_MOTION_DDOT":0}]
